ONEWEB-0687             
1 61595U 24188B   25336.48016273  .00000039  00000+0  67838-4 0  9996
2 61595  87.9108  45.0143 0001219 114.3885 245.7374 13.17651446 59993
ONEWEB-0688             
1 61596U 24188C   25336.43291330  .00000077  00000+0  16553-3 0  9990
2 61596  87.9113  45.0244 0001916 143.1376 216.9887 13.17648439 59987
ONEWEB-0689             
1 61597U 24188D   25336.42139469 -.00000525  00000+0 -15174-2 0  9991
2 61597  87.8854  60.2194 0001336 101.4229 258.7049 13.11417364 58665
ONEWEB-0690             
1 61598U 24188E   25336.27898257 -.00000252  00000+0 -74681-3 0  9998
2 61598  87.8879  60.2585 0002405 101.8326 258.3072 13.11419546 58821
ONEWEB-0691             
1 61599U 24188F   25336.27388918 -.00000676  00000+0 -19426-2 0  9992
2 61599  87.8836  60.1643 0001680 118.4211 241.7086 13.11417301 58671
ONEWEB-0692             
1 61600U 24188G   25336.29424255  .00000367  00000+0  99862-3 0  9990
2 61600  87.8860  60.3025 0001630  70.6572 289.4732 13.11418386 58661
ONEWEB-0693             
1 61601U 24188H   25336.21692500  .00000019  00000+0  16684-4 0  9999
2 61601  87.9112  45.0867 0002563 107.4425 252.6987 13.17648150 59945
ONEWEB-0695             
1 61602U 24188J   25336.27049773 -.00000456  00000+0 -13211-2 0  9992
2 61602  87.8864  60.2964 0001241  87.4508 272.6762 13.11417697 58651
